{
  "norad_id": 63259,
  "name": "LEMUR-2-DELOITTE-1",
  "history": [
    {
      "epoch": "2026-03-28T15:45:41.764032",
      "apogee_km": 578.1735754136398,
      "perigee_km": 574.3125036157007,
      "latitude_deg": 34.183337155290744,
      "longitude_deg": -151.05359552032314,
      "semi_major_axis_km": 6954.38003951467,
      "eccentricity": 0.0002776,
      "inclination_deg": 97.7019,
      "raan_deg": 341.6412,
      "arg_perigee_deg": 60.0868,
      "mean_anomaly_deg": 300.0629,
      "mean_motion_rev_day": 14.96977014
    }
  ]
}